Facility ID,Facility Name,Facility Group,Facility Type,Address,Latitude,Longitude,Geometry
C-C-001,Rose Hill Cemetery,Cemeteries,Cemetery,"1100 W 4Th Street, Bloomington, IN",39.165708,-86.545797,POINT (-86.545797 39.165708)
C-C-002,White Oak Cemetery,Cemeteries,Cemetery,"1200 W 7Th Street, Bloomington, IN",39.169052,-86.548152,POINT (-86.548152 39.169052)
DC-A-001,Big Woods Bloomington,Dining & Cafes,American,"116 N Grant Street, Bloomington, IN",39.16713145,-86.52958997532201,POINT (-86.52958997532201 39.16713145)
DC-A-002,Half Bottle Bistro,Dining & Cafes,American,"3115 S Sare Road, Bloomington, IN",39.13318445,-86.49778373505043,POINT (-86.49778373505043 39.13318445)
DC-A-003,Hive,Dining & Cafes,American,"2608 E 10Th Street, Bloomington, IN",39.1707541,-86.5011251,POINT (-86.5011251 39.1707541)
DC-A-004,FARMbloomington,Dining & Cafes,American,"108 E Kirkwood Avenue, Bloomington, IN",39.1664992,-86.5333739,POINT (-86.5333739 39.1664992)
DC-A-005,Feast Market & Cellar,Dining & Cafes,American,"407 W Patterson Drive, Bloomington, IN",39.1582106,-86.5458853,POINT (-86.5458853 39.1582106)
DC-A-006,Runcible Spoon,Dining & Cafes,American,"412 E 6Th Street, Bloomington, IN",39.167452,-86.5294867,POINT (-86.5294867 39.167452)
DC-A-007,SmokeWorks Bloomington,Dining & Cafes,American,"121 N College Avenue, Bloomington, IN",39.1673149,-86.5352501161498,POINT (-86.5352501161498 39.1673149)
DC-A-008,Uptown Cafe,Dining & Cafes,American,"102 E Kirkwood Avenue, Bloomington, IN",39.1664998,-86.5334317,POINT (-86.5334317 39.1664998)
DC-A-009,The Elm Restaurant,Dining & Cafes,American,"614 E 2Nd Street, Bloomington, IN",39.1611533,-86.5263702,POINT (-86.5263702 39.1611533)
DC-A-010,Crazy Horse,Dining & Cafes,American,"214 W Kirkwood Avenue, Bloomington, IN",39.16688485,-86.53570447663886,POINT (-86.53570447663886 39.16688485)
DC-A-011,Cafe Bali,Dining & Cafes,Asian,"210 S Grant Street, Bloomington, IN",39.165161600000005,-86.5300562,POINT (-86.5300562 39.165161600000005)
DC-A-012,Fat Dan's Deli,Dining & Cafes,American,"221 E Kirkwood Avenue Ste 1, Bloomington, IN",39.1669058,-86.5312914,POINT (-86.5312914 39.1669058)
DC-A-013,BuffaLouie's at The Gables,Dining & Cafes,American,"114 S Indiana Avenue, Bloomington, IN",39.1659572,-86.52713420018262,POINT (-86.52713420018262 39.1659572)
DC-A-014,Malibu Grill,Dining & Cafes,American,"106 N Walnut Street, Bloomington, IN",39.166861,-86.5332152,POINT (-86.5332152 39.166861)
DC-A-015,Nick's English Hut,Dining & Cafes,American,"423 E Kirkwood Avenue, Bloomington, IN",39.1668531,-86.52874212500001,POINT (-86.52874212500001 39.1668531)
DC-A-016,Cheddar's Scratch Kitchen,Dining & Cafes,American,"126 S Franklin Road, Bloomington, IN",39.1660289,-86.5714171,POINT (-86.5714171 39.1660289)
DC-A-017,Samira Restaurant,Dining & Cafes,Afghani,"100 W 6Th Street, Bloomington, IN",39.16533,-86.52639,POINT (-86.52639 39.16533)
DC-A-018,BJ's Restaurant & Brewhouse,Dining & Cafes,American,"411 S College Mall Road, Bloomington, IN",39.1627457,-86.49758205531376,POINT (-86.49758205531376 39.1627457)
DC-A-019,The Tudor Room,Dining & Cafes,American,"900 E 7Th Street, Bloomington, IN",39.1674605,-86.5229386,POINT (-86.5229386 39.1674605)
DC-B-001,Lennie's Brewpub,Dining & Cafes,Brewpub,"514 E Kirkwood Avenue, Bloomington, IN",39.1663999,-86.5274963,POINT (-86.5274963 39.1663999)
DC-B-002,Upland Brewing Co.,Dining & Cafes,Brewpub,"350 W 11Th Street, Bloomington, IN",39.1734338,-86.5374034,POINT (-86.5374034 39.1734338)
DC-B-003,Smokin' Jack's Rib Shack,Dining & Cafes,Barbecue,"505 W 17Th Street, Bloomington, IN",39.1786817,-86.5386954,POINT (-86.5386954 39.1786817)
DC-B-004,Kimu Asian Restaurant,Dining & Cafes,Burmese,"413 E 4Th Street, Bloomington, IN",39.1657172,-86.5290888,POINT (-86.5290888 39.1657172)
DC-B-005,The Vault Pub,Dining & Cafes,Bar,"900 E 7Th Street, Bloomington, IN",39.1674605,-86.5229386,POINT (-86.5229386 39.1674605)
DC-B-006,C3 Bar,Dining & Cafes,Bar,"1505 S Piazza Drive, Bloomington, IN",39.14945345,-86.49956168139957,POINT (-86.49956168139957 39.14945345)
DC-B-008,Root Cellar,Dining & Cafes,Bar,"108 E Kirkwood Avenue, Bloomington, IN",39.1664992,-86.5333739,POINT (-86.5333739 39.1664992)
DC-B-009,Metal Works Brewing Company,Dining & Cafes,Brewpub,"108 E 6Th Street, Bloomington, IN",39.1673629,-86.5330514,POINT (-86.5330514 39.1673629)
DC-C-001,Chow Bar,Dining & Cafes,Chinese,"216 S Indiana Avenue, Bloomington, IN",39.1648076,-86.5271993,POINT (-86.5271993 39.1648076)
DC-C-002,Dats,Dining & Cafes,Cajun,"408 E 4Th Street, Bloomington, IN",39.1653589,-86.5293201,POINT (-86.5293201 39.1653589)
DC-C-003,Uncle Wang's Alley,Dining & Cafes,Chinese,"300 E 3Rd Street, Bloomington, IN",39.1644104,-86.5308585,POINT (-86.5308585 39.1644104)
DC-F-001,Le Petit Cafe,Dining & Cafes,French,"308 W 6Th Street, Bloomington, IN",39.1677962,-86.53659825297382,POINT (-86.53659825297382 39.1677962)
DC-F-002,Cozy Table,Dining & Cafes,Family-friendly,"2500 W 3Rd Street, Bloomington, IN",39.1647459,-86.5682357,POINT (-86.5682357 39.1647459)
DC-F-003,Cloverleaf Family Restaurant,Dining & Cafes,Family-friendly,"4023 W 3Rd Street, Bloomington, IN",39.1640057,-86.5841895,POINT (-86.5841895 39.1640057)
DC-FD-001,Truffles Fine Cuisine & 56 Degrees Bar,Dining & Cafes,Fine Dining,"1131 S College Mall Road, Bloomington, IN",39.15468575,-86.49560015511489,POINT (-86.49560015511489 39.15468575)
DC-G-001,Trojan Horse,Dining & Cafes,Greek,"100 E Kirkwood Avenue, Bloomington, IN",39.1665,-86.533451,POINT (-86.533451 39.1665)
DC-G-002,Yogi's Bloomington,Dining & Cafes,Grill,"302 N Walnut Street, Bloomington, IN",39.1687029,-86.5333932,POINT (-86.5333932 39.1687029)
DC-GF-001,Brightside Cafe,Dining & Cafes,Gluten Free,"101 W Kirkwood Avenue Suite 021, Lower Level, Bloomington, IN",39.1662847,-86.5342397,POINT (-86.5342397 39.1662847)
DC-H-001,BRU Burger Bar Bloomington,Dining & Cafes,Hamburger,"229 S Grant Street Suite 1, Bloomington, IN",39.1647415,-86.529831,POINT (-86.529831 39.1647415)
DC-I-001,Che Bello,Dining & Cafes,Italian,"106 W 6Th Street, Bloomington, IN",39.167808,-86.53388650748555,POINT (-86.53388650748555 39.167808)
DC-I-002,Osteria Rago,Dining & Cafes,Italian,"419 E Kirkwood Avenue, Bloomington, IN",39.16662676015101,-86.52941924706646,POINT (-86.52941924706646 39.16662676015101)
DC-I-003,DeAngelo's Italian Creole Restaurant,Dining & Cafes,Italian,"2620 E 3Rd Street, Bloomington, IN",39.1643138,-86.5009135,POINT (-86.5009135 39.1643138)
DC-I-004,Da Vinci Pizza and Pasta,Dining & Cafes,Italian,"250 S Washington Street, Bloomington, IN",39.1648549,-86.5327508,POINT (-86.5327508 39.1648549)
DC-I-005,Taste of India,Dining & Cafes,Indian,"316 E 4Th Street, Bloomington, IN",39.1653477,-86.5302815,POINT (-86.5302815 39.1653477)
DC-J-001,Yatagarasu - Bloomington,Dining & Cafes,Japanese,"430 E Kirkwood Avenue Unit 6, Bloomington, IN",39.1663473,-86.5283681,POINT (-86.5283681 39.1663473)
DC-J-002,Asuka Steak House,Dining & Cafes,Japanese,"2632 E 3Rd Street, Bloomington, IN",39.1643131,-86.5005399,POINT (-86.5005399 39.1643131)
DC-K-001,Korea Restaurant,Dining & Cafes,Korean,"409 E 4Th Street, Bloomington, IN",39.1657518,-86.5293006,POINT (-86.5293006 39.1657518)
DC-L-001,Vivencia Lat√≠n Flavors,Dining & Cafes,Latin,"2800 E Buick Cadillac Boulevard, Bloomington, IN",39.1577154,-86.49727255616494,POINT (-86.49727255616494 39.1577154)
DC-M-001,Southern Stone,Dining & Cafes,Mexican,"405 W Patterson Drive, Bloomington, IN",39.1582106,-86.5458853,POINT (-86.5458853 39.1582106)
DC-M-002,Feta Kitchen and Cafe,Dining & Cafes,Mediterranean,"600 E Hillside Drive, Bloomington, IN",39.1502808,-86.52663570279259,POINT (-86.52663570279259 39.1502808)
DC-M-003,Social Cantina Bloomington,Dining & Cafes,Mexican,"125 N College Avenue, Bloomington, IN",39.1668901,-86.5349761,POINT (-86.5349761 39.1668901)
DC-M-004,Riviera Maya Bloomington,Dining & Cafes,Mexican,"116 S Franklin Road, Bloomington, IN",39.1673914,-86.57158753762494,POINT (-86.57158753762494 39.1673914)
DC-M-005,La Una Cantina,Dining & Cafes,Mexican,"254 N Walnut Street, Bloomington, IN",39.16836365,-86.53323192483435,POINT (-86.53323192483435 39.16836365)
DC-S-001,Janko's Little Zagreb,Dining & Cafes,Steakhouse,"223 W 6Th Street, Bloomington, IN",39.1674815,-86.5352352,POINT (-86.5352352 39.1674815)
DC-T-001,Blooming Thai,Dining & Cafes,Thai,"405 E 4Th Street, Bloomington, IN",39.165745900000005,-86.52947146728263,POINT (-86.52947146728263 39.165745900000005)
DC-T-002,Cafe Turkuaz,Dining & Cafes,Turkish,"301 E 3Rd Street, Bloomington, IN",39.1648076,-86.5308993,POINT (-86.5308993 39.1648076)
DC-T-003,Siam House,Dining & Cafes,Thai,"430 E 4Th Street, Bloomington, IN",39.1653363,-86.5284376,POINT (-86.5284376 39.1653363)
DC-T-004,Little Tibet Restaurant,Dining & Cafes,Tibetan,"415 E 4Th Street, Bloomington, IN",39.1657213,-86.5289743,POINT (-86.5289743 39.1657213)
DC-U-001,Marco and Polo Restaurant,Dining & Cafes,Uyghur,"209 S Grant Street, Bloomington, IN",39.1652076,-86.5295993,POINT (-86.5295993 39.1652076)
DC-V-001,The Orbit Room,Dining & Cafes,Vegan,"107 N College Avenue #001, Bloomington, IN",39.16691985,-86.53526701832776,POINT (-86.53526701832776 39.16691985)
EL-AC-001,John Waldron Arts Center,Education & Learning,Arts Center/Gallery,"122 S Walnut Street, Bloomington, IN",39.165732,-86.533868,POINT (-86.533868 39.165732)
EL-CS-001,IU Career Development Center,Education & Learning,Career Services,"1320 E 10Th Street, Bloomington, IN",39.17105145,-86.51685115237282,POINT (-86.51685115237282 39.17105145)
EL-L-001,Cook Music Library,Education & Learning,Library,"200 S Eagleson Avenue, Bloomington, IN",39.16534885,-86.51743911108935,POINT (-86.51743911108935 39.16534885)
EL-L-002,Education Library,Education & Learning,Library,"201 N Rose Avenue, Bloomington, IN",39.16701535,-86.51250049088785,POINT (-86.51250049088785 39.16701535)
EL-L-003,Friends of the Library Bookstore,Education & Learning,Library,"303 E Kirkwood Avenue, Bloomington, IN",39.16693765,-86.530448225,POINT (-86.530448225 39.16693765)
EL-L-004,The Lilly Library,Education & Learning,Library,"1200 E 7Th Street, Bloomington, IN",39.167913549999994,-86.51898175,POINT (-86.51898175 39.167913549999994)
EL-L-005,IUB Business / SPEA Library,Education & Learning,Library,"1315 East 10Th Street, Bloomington, IN",39.1723925,-86.5175805,POINT (-86.5175805 39.1723925)
EL-L-006,Neal-Marshall Black Culture Center Library,Education & Learning,Library,"275 N Eagleson Avenue, Bloomington, IN",39.16837155,-86.51691209250174,POINT (-86.51691209250174 39.16837155)
EL-L-007,Ruth Lilly Auxiliary Library Facility,Education & Learning,Library,"2850 E Discovery Parkway, Bloomington, IN",39.1749014,-86.49732749433639,POINT (-86.49732749433639 39.1749014)
EL-L-008,Ivy Tech Bloomington Library,Education & Learning,Library,"200 Daniels Way, Bloomington, IN",39.164822,-86.599103,POINT (-86.599103 39.164822)
EL-L-009,Monroe County Public Library - Southwest Branch,Education & Learning,Library,"890 W Gordon Pike, Bloomington, IN",39.12219705,-86.54270084904341,POINT (-86.54270084904341 39.12219705)
EL-L-010,IUB Sciences Library,Education & Learning,Library,"800 E Kirkwood Avenue, Bloomington, IN",39.1659739,-86.5227429,POINT (-86.5227429 39.1659739)
EL-L-011,Monroe County Public Library - Downtown,Education & Learning,Library,"303 E Kirkwood Avenue, Bloomington, IN",39.16693765,-86.530448225,POINT (-86.530448225 39.16693765)
EL-L-012,Maurer School of Law Library,Education & Learning,Library,"211 S Indiana Avenue, Bloomington, IN",39.1650891,-86.52632642485594,POINT (-86.52632642485594 39.1650891)
EL-L-013,Monroe County Public Library - Ellettsville Branch,Education & Learning,Library,"Ellettsville, In, Bloomington, IN",39.2138246,-86.6107471,POINT (-86.6107471 39.2138246)
EL-L-014,Herman B Wells Library,Education & Learning,Library,"1320 E 10Th Street, Bloomington, IN",39.17105145,-86.51685115237282,POINT (-86.51685115237282 39.17105145)
EL-PS-001,The Academy of Science and Entrepreneurship,Education & Learning,Public School,"444 S Patterson Drive, Bloomington, IN",39.1630278,-86.5510064,POINT (-86.5510064 39.1630278)
EL-PS-002,Templeton Elementary School,Education & Learning,Public School,"1400 S Brenda Avenue, Bloomington, IN",39.16533,-86.52639,POINT (-86.52639 39.16533)
EL-PS-003,Marlin Elementary School,Education & Learning,Public School,"1655 E Bethel Lane, Bloomington, IN",39.21539553625489,-86.51628592456056,POINT (-86.51628592456056 39.21539553625489)
EL-PS-004,Bloomington Montessori School,Education & Learning,Private School,"1835 S Highland Avenue, Bloomington, IN",39.14446825,-86.51677889819909,POINT (-86.51677889819909 39.14446825)
EL-PS-005,Covenant Christian School,Education & Learning,Private School,"4000 E Moores Creek Road, Bloomington, IN",39.120071389034,-86.48411191823976,POINT (-86.48411191823976 39.120071389034)
EL-PS-006,Highland Park Elementary School,Education & Learning,Public School,"900 S Park Square Drive, Bloomington, IN",39.156741,-86.591861,POINT (-86.591861 39.156741)
EL-PS-007,Binford Elementary School,Education & Learning,Public School,"2300 E 2Nd Street, Bloomington, IN",39.160871,-86.505684,POINT (-86.505684 39.160871)
EL-PS-008,Monroe County Community School Corporation,Education & Learning,Public School,"315 E North Drive, Bloomington, IN",39.14448801846578,-86.52947895452469,POINT (-86.52947895452469 39.14448801846578)
EL-PS-009,Fairview Elementary School,Education & Learning,Public School,"500 W 7Th Street, Bloomington, IN",39.1690016,-86.539924,POINT (-86.539924 39.1690016)
EL-PS-010,Tri-North Middle School,Education & Learning,Public School,"1000 W 15Th Street, Bloomington, IN",39.176442,-86.543854,POINT (-86.543854 39.176442)
EL-PS-011,University Elementary School,Education & Learning,Public School,"1111 N Russell Road, Bloomington, IN",39.1757974,-86.4825937,POINT (-86.4825937 39.1757974)
EL-PS-012,Grandview Elementary School,Education & Learning,Public School,"2300 S Endwright Road, Bloomington, IN",39.14603169383584,-86.59640384206081,POINT (-86.59640384206081 39.14603169383584)
EL-PS-013,Seven Oaks Classical School,Education & Learning,Public School,"Ellettsville, In, Bloomington, IN",39.2138246,-86.6107471,POINT (-86.6107471 39.2138246)
EL-PS-014,Adventist Christian Elementary,Education & Learning,Private School,"2230 N Martha Street, Bloomington, IN",39.1867545,-86.53134741710555,POINT (-86.53134741710555 39.1867545)
EL-PS-015,Grace Baptist Church & Academy,Education & Learning,Private School,"2320 N Smith Pike, Bloomington, IN",39.189154,-86.583005,POINT (-86.583005 39.189154)
EL-PS-016,St. Benedict Classical Catholic School,Education & Learning,Private School,"4609 In-46, Bloomington, IN",39.228274,-86.5938039,POINT (-86.5938039 39.228274)
EL-PS-017,Bloomington Graduation School,Education & Learning,Public School,"705 W Coolidge Drive, Bloomington, IN",39.14121002998908,-86.5412674446561,POINT (-86.5412674446561 39.14121002998908)
EL-PS-018,Monroe Community Christian School,Education & Learning,Private School,"4000 E Moores Creek Road, Bloomington, IN",39.120071389034,-86.48411191823976,POINT (-86.48411191823976 39.120071389034)
EL-PS-019,Hoosier Lash Academy,Education & Learning,Public School,"328 S Walnut Street Ste 1, Bloomington, IN",39.163879,-86.5337375,POINT (-86.5337375 39.163879)
EL-PS-020,The Project School,Education & Learning,Public School,"349 S Walnut Street, Bloomington, IN",39.1636026,-86.5335277,POINT (-86.5335277 39.1636026)
EL-PS-021,Summit Elementary School,Education & Learning,Public School,"1450 W Countryside Lane, Bloomington, IN",39.14128287170249,-86.55321763859857,POINT (-86.55321763859857 39.14128287170249)
EL-PS-022,Hoosier Courts Nursery School,Education & Learning,Public School,"1150 N Union Court, Bloomington, IN",39.1745653,-86.50884815782828,POINT (-86.50884815782828 39.1745653)
EL-PS-023,Arlington Heights Elementary School,Education & Learning,Public School,"700 W Parrish Road, Bloomington, IN",39.188121550814216,-86.53919936780892,POINT (-86.53919936780892 39.188121550814216)
EL-PS-024,IU High School,Education & Learning,Public School,"625 N Eagleson Avenue, Bloomington, IN",39.1723688,-86.51595989451599,POINT (-86.51595989451599 39.1723688)
EL-PS-025,St Charles School,Education & Learning,Public School,"2224 E 3Rd Street, Bloomington, IN",39.164346,-86.5067991,POINT (-86.5067991 39.164346)
EL-PS-026,Childs Elementary School,Education & Learning,Public School,"2211 S High Street, Bloomington, IN",39.1384189,-86.5061074,POINT (-86.5061074 39.1384189)
EL-PS-027,IU School of Public Health,Education & Learning,Public School,"1025 E 7Th Street, Bloomington, IN",39.1692206,-86.52084144781067,POINT (-86.52084144781067 39.1692206)
EL-PS-028,Clear Creek Christian School,Education & Learning,Private School,"530 W Church Lane, Bloomington, IN",39.10741021849584,-86.53971552051625,POINT (-86.53971552051625 39.10741021849584)
EL-PS-030,Prep School,Education & Learning,Public School,"525 W 17Th Street, Bloomington, IN",39.1787397,-86.5393015,POINT (-86.5393015 39.1787397)
EL-PS-031,Harmony School,Education & Learning,Public School,"909 E 2Nd Street, Bloomington, IN",39.1617495,-86.52145479882076,POINT (-86.52145479882076 39.1617495)
EL-PS-032,Lisa's Bloomington English Academy,Education & Learning,Public School,"3069 E Amy Lane, Bloomington, IN",39.1693068,-86.4968721,POINT (-86.4968721 39.1693068)
EL-PS-033,Lighthouse Christian Academy,Education & Learning,Private School,"1201 W That Road, Bloomington, IN",39.11452760107239,-86.54548770288206,POINT (-86.54548770288206 39.11452760107239)
EL-S-001,Ivy Tech Community College Bloomington,Education & Learning,School,"200 Daniels Way, Bloomington, IN",39.164822,-86.599103,POINT (-86.599103 39.164822)
EL-S-002,The Excel Center,Education & Learning,School,"2088 Liberty Drive, Bloomington, IN",39.1463932,-86.5790029,POINT (-86.5790029 39.1463932)
EL-S-003,Hoosier Hills Career Center,Education & Learning,School,"3070 N Prow Road, Bloomington, IN",39.19773329745061,-86.55206746207621,POINT (-86.55206746207621 39.19773329745061)
EL-S-004,Monroe County Adult Education,Education & Learning,School,"705 W Coolidge Drive, Bloomington, IN",39.14121002998908,-86.5412674446561,POINT (-86.5412674446561 39.14121002998908)
EL-S-005,Bloomington Developmental Learning Center,Education & Learning,School,"1807 S Highland Avenue, Bloomington, IN",39.1466681,-86.5173496,POINT (-86.5173496 39.1466681)
EL-S-006,Kid Angles: The Early Education,Education & Learning,School,"1500 E Hillside Drive, Bloomington, IN",39.15046,-86.51497,POINT (-86.51497 39.15046)
EL-TC-001,Union Piping Industry Training Center,Education & Learning,Training Center,"1650 W Bloomfield Road, Bloomington, IN",39.1565461,-86.5616571,POINT (-86.5616571 39.1565461)
EL-TC-002,Acadis by Vector Solutions,Education & Learning,Training Center,"101 W Kirkwood Avenue Suite 200, Bloomington, IN",39.1662847,-86.5342397,POINT (-86.5342397 39.1662847)
EL-TC-003,Wolverine Fight System,Education & Learning,Training Center,"116 1/2 S College Avenue Suite 11, Bloomington, IN",39.1583322,-86.5350232,POINT (-86.5350232 39.1583322)
EL-TC-005,Wild Orchid - Embodied Pole Dance & Sensual Arts Studio,Education & Learning,Training Center,"217 W 6Th Street Suite 105, Bloomington, IN",39.1674803,-86.5351782,POINT (-86.5351782 39.1674803)
EL-TC-006,Inner Resources Training Institute,Education & Learning,Training Center,"304 W Howe Street Suite B, Bloomington, IN",39.1624684,-86.5364987,POINT (-86.5364987 39.1624684)
EL-TC-007,Mannered Mutts Training LLC,Education & Learning,Training Center,"4001 E 3Rd Street Suite 1, Bloomington, IN",39.1642342,-86.4831009,POINT (-86.4831009 39.1642342)
EL-TC-008,City of Bloomington Public Safety Training Center,Education & Learning,Training Center,"3230 S Walnut Street, Bloomington, IN",39.1292126,-86.526916,POINT (-86.526916 39.1292126)
EL-TC-009,Stone Creek Ranch,Education & Learning,Training Center,"7587 Rockport Road, Bloomington, IN",39.1447969,-86.5403777,POINT (-86.5403777 39.1447969)
EL-TC-010,great lakes park training institute,Education & Learning,Training Center,"501 N Morton Street, Bloomington, IN",39.170582,-86.53621,POINT (-86.53621 39.170582)
EL-U-001,Regional Academic Health Center (RAHC),Education & Learning,University,"2631 E Discovery Parkway, Bloomington, In 47408",39.17535409755241,-86.49958572570831,POINT (-86.49958572570831 39.17535409755241)
ESS-FS-001,Bloomington Fire Station 3,Emergency & Safety Services,Fire Station,"810 N Woodlawn Avenue, Bloomington, IN",39.1738,-86.523277,POINT (-86.523277 39.1738)
ESS-FS-002,Bloomington Fire Station 4,Emergency & Safety Services,Fire Station,"2201 E 3Rd Street, Bloomington, IN",39.164491,-86.506513,POINT (-86.506513 39.164491)
ESS-FS-003,Bloomington Fire Station 5,Emergency & Safety Services,Fire Station,"1987 S Henderson Street, Bloomington, IN",39.145416,-86.526502,POINT (-86.526502 39.145416)
ESS-FS-004,Bloomington Fire Station 2,Emergency & Safety Services,Fire Station,"209 S Fairfield Drive, Bloomington, IN",39.165281,-86.569751,POINT (-86.569751 39.165281)
ESS-FS-005,Temporary Station 1 HQ,Emergency & Safety Services,Fire Station,"226 S College Avenue, Bloomington, IN",39.16493017,-86.53560281,POINT (-86.53560281 39.16493017)
ESS-FS-006,Bloomington Fire Station 1 (HQ),Emergency & Safety Services,Fire Station,"300 E 4Th Street, Bloomington, IN",39.165361,-86.530821,POINT (-86.530821 39.165361)
ESS-FS-007,Bloomington Fire Department,Emergency & Safety Services,Fire Station,"300 E 4Th Street, Bloomington, In",39.1652852,-86.5308885238536,POINT (-86.5308885238536 39.1652852)
ESS-FS-008,Bloomington Fire Station #4,Emergency & Safety Services,Fire Station,"2201 E 3Rd Street, Bloomington, In",39.164544,-86.50657850660527,POINT (-86.50657850660527 39.164544)
ESS-FS-009,Bloomington Fire Station #5,Emergency & Safety Services,Fire Station,"1987 S Henderson Street, Bloomington, In",39.14443,-86.526853,POINT (-86.526853 39.14443)
ESS-FS-010,Monroe Fire Protection District Station 22,Emergency & Safety Services,Fire Station,"3953 S Kennedy Drive, Bloomington, In",39.12248027224351,-86.52839244154579,POINT (-86.52839244154579 39.12248027224351)
ESS-FS-011,Bloomington Fire Station #3,Emergency & Safety Services,Fire Station,"810 N Woodlawn Avenue, Bloomington, In",39.17387865,-86.52318631412268,POINT (-86.52318631412268 39.17387865)
ESS-FS-012,Bloomington Fire Station #2,Emergency & Safety Services,Fire Station,"209 S Fairfield Drive, Bloomington, In",39.1653607,-86.56968974717483,POINT (-86.56968974717483 39.1653607)
ESS-FS-013,Monroe Fire Protection District Station 29,Emergency & Safety Services,Fire Station,"2130 S Kirby Road, Bloomington, In",39.1636996,-86.5291743,POINT (-86.5291743 39.1636996)
ESS-FS-014,Monroe Fire Protection District,Emergency & Safety Services,Fire Station,"285 East Rhorer Road, Bloomington, In",39.12152914285714,-86.52702814285715,POINT (-86.52702814285715 39.12152914285714)
ESS-FS-015,Ellettsville Fire Department Station 8,Emergency & Safety Services,Fire Station,"900 N Curry Pike, Bloomington, In",39.174704,-86.582916,POINT (-86.582916 39.174704)
ESS-FS-016,Ellettsville Fire Department,Emergency & Safety Services,Fire Station,"5080 In-46, Bloomington, In",39.2075465,-86.6013836,POINT (-86.6013836 39.2075465)
ESS-FS-017,Van Buren Fire Department Station 19,Emergency & Safety Services,Fire Station,"2130 S Kirby Road, Bloomington, In",39.1636996,-86.5291743,POINT (-86.5291743 39.1636996)
ESS-FS-018,Benton Township Volunteer Fire Department,Emergency & Safety Services,Fire Station,"7606 E State Road 45, Bloomington, In",39.1862838,-86.5240522,POINT (-86.5240522 39.1862838)
ESS-FS-019,MFD Station 25,Emergency & Safety Services,Fire Station,"5081 Old State Road 37, Bloomington, In",39.184303506936104,-86.5352558181013,POINT (-86.5352558181013 39.184303506936104)
ESS-PD-001,Bloomington Police Department,Emergency & Safety Services,Police Department,"220 E 3Rd Street, Bloomington, In",39.1643493,-86.53151727500001,POINT (-86.53151727500001 39.1643493)
ESS-PD-002,Indiana University Police Department (IUPD),Emergency & Safety Services,Police Department,"1469 E 17Th Street, Bloomington, In",39.17927895,-86.5133414746048,POINT (-86.5133414746048 39.17927895)
ESS-PS-001,BPD Switchyard Substation,Emergency & Safety Services,Police Station,"245 W Grimes Lane, Bloomington, IN",39.15306,-86.536005,POINT (-86.536005 39.15306)
ESS-PS-002,Police Department Headquarters,Emergency & Safety Services,Police Station,"220 E 3Rd Street, Bloomington, IN",39.164375,-86.531512,POINT (-86.531512 39.164375)
ESS-PS-003,Bloomington Police Substation,Emergency & Safety Services,Police Substation,"245 W Grimes Lane, Bloomington, In",39.15327803478663,-86.53543089245797,POINT (-86.53543089245797 39.15327803478663)
ESS-PSTF-001,Bloomington Fire Training Tower,Emergency & Safety Services,Public Safety Training Facility,"3190 S Walnut Street, Bloomington, IN",39.127633,-86.533019,POINT (-86.533019 39.127633)
ESS-PSTF-002,Public Safety Training Facility,Emergency & Safety Services,Public Safety Training Facility,"3230 S Walnut Street, Bloomington, IN",39.127188,-86.532966,POINT (-86.532966 39.127188)
ESS-SD-001,Monroe County Sheriff's Department,Emergency & Safety Services,Sheriff's Department,"301 N College Avenue, Bloomington, In",39.1690926,-86.53522720000001,POINT (-86.53522720000001 39.1690926)
ESS-SP-001,Indiana State Police,Emergency & Safety Services,State Police,"1500 N Packing House Road, Bloomington, In",39.179009,-86.563243,POINT (-86.563243 39.179009)
GCS-CGO-001,Community & Family Resources Department,Government & Civic Services,City Government Office,"401 N Morton Street Suite 260, Bloomington, In",39.1709259,-86.5361163,POINT (-86.5361163 39.1709259)
GCS-CGO-002,Bloomington City Hall,Government & Civic Services,City Government Office,"401 N Morton Street, Bloomington, In",39.1697339,-86.5366772,POINT (-86.5366772 39.1697339)
GCS-D-001,Bloomington BMV Branch,Government & Civic Services,DMV,"1531 S Curry Pike Suite 500, Bloomington, In",39.1612988,-86.5827063,POINT (-86.5827063 39.1612988)
GCS-GO-001,Innovation Lab,Government & Civic Services,Government Offices,"627 N Morton Street, Bloomington, IN",39.17258219,-86.53622068,POINT (-86.53622068 39.17258219)
GCS-GO-002,Rose Hill Cemetery Office,Government & Civic Services,Government Offices,"930 W 4Th Street, Bloomington, IN",39.165834,-86.545175,POINT (-86.545175 39.165834)
GCS-GO-003,Showers City Hall,Government & Civic Services,Government Offices,"401 N Morton Street, Bloomington, IN",39.169927,-86.536806,POINT (-86.536806 39.169927)
GCS-GO-004,Bloomington Economic and Sustaintable Development,Government & Civic Services,Government Offices,"401 N Morton Street Ste 150, Bloomington, IN",39.169723,-86.536677,POINT (-86.536677 39.169723)
GCS-GO-005,Utility Service Center,Government & Civic Services,Government Offices,"600 E Miller Drive, Bloomington, IN",39.146056,-86.526028,POINT (-86.526028 39.146056)
GCS-GO-006,Bloomington Traffic Division,Government & Civic Services,Government Operations,"121 W Allen Street, Bloomington, IN",39.15549,-86.534865,POINT (-86.534865 39.15549)
GCS-GO-007,Sanitation Division,Government & Civic Services,Government Operations,"3406 S Walnut Street, Bloomington, IN",39.123598,-86.532634,POINT (-86.532634 39.123598)
GCS-GO-008,Bloomington Parks Operations,Government & Civic Services,Government Operations,"545 S Adams Street, Bloomington, IN",39.161938,-86.55041,POINT (-86.55041 39.161938)
GCS-GO-009,Bloomington Information Technology Services,Government & Civic Services,Government Offices,"401 N Morton Street Ste 160, Bloomington, IN",39.169748,-86.536662,POINT (-86.536662 39.169748)
GCS-GO-010,Cascades Maintenance Building,Government & Civic Services,Government Operations,"3940 N Kinser Pike, Bloomington, IN",39.20430153,-86.54329346,POINT (-86.54329346 39.20430153)
GCS-GO-011,Dillman Road Wastewater Treatment Plant,Government & Civic Services,Government Operations,"100 W Dillman Road, Bloomington, IN",39.093657,-86.549131,POINT (-86.549131 39.093657)
GCS-GO-012,Bloomington Controllers Office,Government & Civic Services,Government Offices,"401 N Morton Street Ste 240, Bloomington, IN",39.169811,-86.536627,POINT (-86.536627 39.169811)
GCS-GO-013,Bloomington HAND & Planning and Transportation,Government & Civic Services,Government Offices,"401 N Morton Street Ste 130, Bloomington, IN",39.169658,-86.536705,POINT (-86.536705 39.169658)
GCS-GO-014,Bloomington Community and Family Resources,Government & Civic Services,Government Offices,"401 N Morton Street Ste 260, Bloomington, IN",39.16983,-86.536616,POINT (-86.536616 39.16983)
GCS-GO-015,Switchyard Park Maintenance,Government & Civic Services,Government Operations,"1611 S Rogers Street, Bloomington, IN",39.1473439,-86.53832721,POINT (-86.53832721 39.1473439)
GCS-GO-016,Bloomington City Clerk Office,Government & Civic Services,Government Offices,"401 N Morton Street Ste 110, Bloomington, IN",39.169606,-86.53678,POINT (-86.53678 39.169606)
GCS-GO-017,Bloomington Parks & Recreation Department,Government & Civic Services,Government Offices,"401 N Morton Street Ste 250, Bloomington, IN",39.170288,-86.537064,POINT (-86.537064 39.170288)
GCS-GO-018,Monroe Water Treatment Plant,Government & Civic Services,Government Operations,"7470 S Shields Ridge Road, Bloomington, IN",39.07286097,-86.46290079,POINT (-86.46290079 39.07286097)
GCS-GO-019,Street Department,Government & Civic Services,Government Operations,"1981 S Henderson Street, Bloomington, IN",39.145641,-86.524223,POINT (-86.524223 39.145641)
GCS-GO-020,Blucher Poole Wastewater Treatment Plant,Government & Civic Services,Government Operations,"5555 N Bottom Road, Bloomington, IN",39.246584,-86.548361,POINT (-86.548361 39.246584)
GCS-GO-021,Fleet Maintenance,Government & Civic Services,Government Operations,"800 E Miller Drive, Bloomington, IN",39.146616,-86.52382,POINT (-86.52382 39.146616)
GCS-GO-022,Housing Authority,Government & Civic Services,Government Offices,"1007 N Summit Street, Bloomington, IN",39.175263,-86.548348,POINT (-86.548348 39.175263)
GCS-GO-023,Bloomington Legal,Government & Civic Services,Government Offices,"401 N Morton Street Ste 220, Bloomington, IN",39.16977,-86.536648,POINT (-86.536648 39.16977)
GCS-GO-024,Animal Shelter,Government & Civic Services,Government Offices,"3410 S Walnut Street, Bloomington, IN",39.122961,-86.532054,POINT (-86.532054 39.122961)
GCS-GO-025,Bloomington Office of the Mayor,Government & Civic Services,Government Offices,"401 N Morton Street Ste 210, Bloomington, IN",39.170108,-86.536677,POINT (-86.536677 39.170108)
GCS-GO-026,Bloomington Human Resources,Government & Civic Services,Government Offices,"401 N Morton Street Ste 230, Bloomington, IN",39.169792,-86.536637,POINT (-86.536637 39.169792)
GCS-GO-027,Bloomington Public Works,Government & Civic Services,Government Offices,"401 N Morton Street Ste 120, Bloomington, IN",39.169633,-86.536713,POINT (-86.536713 39.169633)
GCS-GO-028,CBU Southeast Booster Station & Tank,Government & Civic Services,Government Operations,"4101 S Harrell Road, Bloomington, IN",39.119505,-86.496638,POINT (-86.496638 39.119505)
GCS-GO-029,Family Social Services Administration,Government & Civic Services,Government Office,"1531 S Curry Pike Suite 300, Bloomington, In",39.1612988,-86.5827063,POINT (-86.5827063 39.1612988)
GCS-NO-001,South Central Community Action Program,Government & Civic Services,Non-profit Organization,"1500 W 15Th Street, Bloomington, In",39.17710685,-86.55305755579975,POINT (-86.55305755579975 39.17710685)
GCS-NO-002,Habitat for Humanity of Monroe County,Government & Civic Services,Non-profit Organization,"213 E Kirkwood Avenue, Bloomington, In",39.1668176,-86.53158329737832,POINT (-86.53158329737832 39.1668176)
GCS-PO-001,United States Postal Service,Government & Civic Services,Post Office,"520 S Walnut Street, Bloomington, In",39.16088685503416,-86.53375640139382,POINT (-86.53375640139382 39.16088685503416)
GCS-PO-002,United States Postal Service,Government & Civic Services,Post Office,"3210 E 10Th Street, Bloomington, In",39.17093825,-86.49346124313047,POINT (-86.49346124313047 39.17093825)
GCS-PO-003,United States Postal Service,Government & Civic Services,Post Office,"4738 W Vernal Pike, Bloomington, In",39.179137749999995,-86.5574584,POINT (-86.5574584 39.179137749999995)
GCS-PO-004,United States Postal Service,Government & Civic Services,Post Office,"Clear Creek, In, Bloomington, IN",39.1092143,-86.5399968,POINT (-86.5399968 39.1092143)
GCS-PO-005,USPS COLLECTION BOX,Government & Civic Services,Post Office,"Bloomington, In",39.1670396,-86.5342881,POINT (-86.5342881 39.1670396)
GCS-PO-006,USPS COLLECTION BOX,Government & Civic Services,Post Office,"119 W 7Th Street, Bloomington, In",39.168323349999994,-86.53448956150235,POINT (-86.53448956150235 39.168323349999994)
GCS-SSO-001,Monroe County Division of Family Resources,Government & Civic Services,Social Services Office,"1531 S Curry Pike Suite 300, Bloomington, In",39.1612988,-86.5827063,POINT (-86.5827063 39.1612988)
GCS-SSO-002,Social Security Administration,Government & Civic Services,Social Security Office,"515 W Patterson Drive, Bloomington, In",39.158210561294155,-86.54588526579478,POINT (-86.54588526579478 39.158210561294155)
GCS-SSO-003,Disability Claim Services Inc,Government & Civic Services,Social Services Office,"2620 N Walnut Street, Bloomington, In",39.19266596873702,-86.53302570324772,POINT (-86.53302570324772 39.19266596873702)
GCS-SSO-004,Adult Protective Services,Government & Civic Services,Social Services Office,"501 N Morton Street, Bloomington, In",39.170582,-86.53621,POINT (-86.53621 39.170582)
GCS-SSO-005,Family Solutions,Government & Civic Services,Social Services Office,"1180 Liberty Drive, Bloomington, In",39.151003,-86.576938,POINT (-86.576938 39.151003)
GCS-SSO-006,Monroe County WIC Program,Government & Civic Services,Social Services Office,"333 E Miller Drive, Bloomington, In",39.146989899331416,-86.52998628059434,POINT (-86.52998628059434 39.146989899331416)
GCS-UO-001,City of Bloomington Utilities,Government & Civic Services,Utilities Office,"600 E Miller Drive, Bloomington, In",39.146875,-86.526743,POINT (-86.526743 39.146875)
HW-ALF-001,Hearthstone Health Campus,Healthcare & Wellness,Assisted Living Facility,"3043 N Lintel Drive, Bloomington, In 47404",39.25007,-86.580849,POINT (-86.580849 39.25007)
HW-ALF-002,Stonecroft Health Campus,Healthcare & Wellness,Assisted Living Facility,"363 S Fieldstone Boulevard, Bloomington, In 47403",39.16487,-86.605339,POINT (-86.605339 39.16487)
HW-ALF-003,Bell Trace Health & Living,Healthcare & Wellness,Assisted Living Facility,"725 Bell Trace Circle, Bloomington, In 47408",39.1689974,-86.4888937,POINT (-86.4888937 39.1689974)
HW-FC-001,Stratosphere Pole Resilience,Healthcare & Wellness,Fitness Center,"312 E Dixie Street, Bloomington, IN",39.156307600000005,-86.53065551011005,POINT (-86.53065551011005 39.156307600000005)
HW-FC-002,Train Bloomington Fitness Center,Healthcare & Wellness,Fitness Center,"2674 E 2Nd Street, Bloomington, IN",39.1608406,-86.4984163,POINT (-86.4984163 39.1608406)
HW-FC-003,Longevity Bloomington,Healthcare & Wellness,Fitness Center,"417 N Elm Street, Bloomington, IN",39.1681256,-86.5452756,POINT (-86.5452756 39.1681256)
HW-H-001,IU Health Bloomington Hospital,Healthcare & Wellness,Hospital,"2651 E Discovery Parkway, Bloomington, In 47408",39.17734385,-86.50352701223837,POINT (-86.50352701223837 39.17734385)
HW-H-002,Monroe Hospital,Healthcare & Wellness,Hospital,"4011 S Monroe Medical Park Boulevard, Bloomington, In 47403",39.1203582,-86.57181037497892,POINT (-86.57181037497892 39.1203582)
HW-HHCS-001,Bloomington Hospital Home Health,Healthcare & Wellness,Home Health Care Service,"333 E Miller Drive, Bloomington, In 47401",39.146989899331416,-86.52998628059434,POINT (-86.52998628059434 39.146989899331416)
HW-MC-001,Indiana University Student Health Center,Healthcare & Wellness,Medical Center,"600 N Eagleson Avenue, Bloomington, In 47405",39.17211865,-86.51518279610724,POINT (-86.51518279610724 39.17211865)
HW-MC-002,HealthNet Bloomington Health Center,Healthcare & Wellness,Medical Clinic,"811 W 2Nd Street, Bloomington, In 47403",39.16134305544695,-86.54247940838711,POINT (-86.54247940838711 39.16134305544695)
HW-MC-003,IU Health Primary Care - Landmark,Healthcare & Wellness,Medical Clinic,"550 S Landmark Avenue, Bloomington, In 47403",39.1606926,-86.5550396,POINT (-86.5550396 39.1606926)
HW-MC-004,IU Health Primary Care - Liberty,Healthcare & Wellness,Medical Clinic,"1520 Liberty Drive, Bloomington, In 47403",39.147347,-86.577085,POINT (-86.577085 39.147347)
HW-MC-005,Activate by Everside Health,Healthcare & Wellness,Medical Clinic,"119 W 7Th Street #264, Bloomington, In 47404",39.168632,-86.5441565,POINT (-86.5441565 39.168632)
HW-MC-006,The Cook Family Health Center,Healthcare & Wellness,Medical Center,"402 N Rogers Street, Bloomington, In 47404",39.1698314,-86.53831054245512,POINT (-86.53831054245512 39.1698314)
HW-MHC-001,Bloomington Meadows Hospital,Healthcare & Wellness,Mental Health Clinic,"3600 N Prow Road, Bloomington, In 47404",39.20605315,-86.55098737289987,POINT (-86.55098737289987 39.20605315)
HW-NH-001,Brickyard Healthcare - Bloomington Care Center,Healthcare & Wellness,Nursing Home,"155 E Burks Drive, Bloomington, In 47401",39.1267477323763,-86.5292347818554,POINT (-86.5292347818554 39.1267477323763)
HW-NH-002,Majestic Care of Bloomington,Healthcare & Wellness,Nursing Home,"1100 S Curry Pike, Bloomington, In 47403",39.14936932399131,-86.58255630702538,POINT (-86.58255630702538 39.14936932399131)
HW-NH-003,Aperion Care Monroe,Healthcare & Wellness,Nursing Home,"120 E Miller Drive, Bloomington, In 47401",39.14697075345173,-86.52673161262301,POINT (-86.52673161262301 39.14697075345173)
HW-NH-004,Golden LivingCenter - Bloomington,Healthcare & Wellness,Nursing Home,"155 E Burks Drive, Bloomington, In 47401",39.1267477323763,-86.5292347818554,POINT (-86.5292347818554 39.1267477323763)
HW-SH-001,Bloomington Regional Rehabilitation Hospital,Healthcare & Wellness,Specialized Hospital,"3050 N Lintel Drive, Bloomington, In 47404",39.25007,-86.580849,POINT (-86.580849 39.25007)
HW-UCC-001,IU Health Urgent Care - Bloomington,Healthcare & Wellness,Urgent Care Center,"326 S Woodscrest Drive, Bloomington, In 47401",39.16384763118611,-86.50255477096619,POINT (-86.50255477096619 39.16384763118611)
PG-PF-001,Frank Southern Ice Arena Parking Lot,Parking & Garages,Parking Facility,"N Of Frank Southern Ice Arena, Bloomington, IN",39.1437333,-86.5272573,POINT (-86.5272573 39.1437333)
PG-PF-002,College Ave and Smith Ave Parking Lot,Parking & Garages,Parking Facility,"S College Avenue South Of Convention Center, Bloomington, IN",39.163404,-86.535608,POINT (-86.535608 39.163404)
PG-PF-003,Griffy Lake Nature Preserve Parking Lot South,Parking & Garages,Parking Facility,"W Side Of Headley Road, South Of Griffy Lake, Bloomington, IN",39.191774,-86.5119953,POINT (-86.5119953 39.191774)
PG-PF-004,6th and Lincoln Parking Lot,Parking & Garages,Parking Facility,"Across From The Monroe County Public Library, Bloomington, IN",39.167258,-86.53143,POINT (-86.53143 39.167258)
PG-PF-005,Cascades Golf Course Parking Lot,Parking & Garages,Parking Facility,"Parking Lot At Cascades Golf Course, Bloomington, IN",39.201715,-86.5388155,POINT (-86.5388155 39.201715)
PG-PF-006,Clear Creek Trail Parking Lot South,Parking & Garages,Parking Facility,"Clear Creek Trail, Bloomington, In 47403",39.107639,-86.5429592,POINT (-86.5429592 39.107639)
PG-PF-007,4th and Washington Parking Lot,Parking & Garages,Parking Facility,"4Th Street Between Walnut And Washington, Bloomington, IN",39.165826,-86.532834,POINT (-86.532834 39.165826)
PG-PF-008,Trades District Parking Garage,Parking & Garages,Parking Facility,"489 W 10Th Street, Bloomington, IN",39.17096754,-86.5379227,POINT (-86.5379227 39.17096754)
PG-PF-009,Ferguson Dog Park Parking Lot,Parking & Garages,Parking Facility,"4300 N Stone Mill Road, Bloomington, In 47408",39.209213,-86.5328309,POINT (-86.5328309 39.209213)
PG-PF-010,3rd and Washington Parking Lot,Parking & Garages,Parking Facility,South Side Of The Bloomington Police Department,39.164248,-86.53188,POINT (-86.53188 39.164248)
PG-PF-011,Switchyard Park Parking Lot North,Parking & Garages,Parking Facility,"Access From W Grimes Lane, Bloomington, IN",39.1519514,-86.5358205,POINT (-86.5358205 39.1519514)
PG-PF-012,Bloomington Rail Trail Parking Lot,Parking & Garages,Parking Facility,"298 W Country Club Drive, Bloomington, In 47403",39.1357517,-86.5352213,POINT (-86.5352213 39.1357517)
PG-PF-013,Morton Street Parking Garage,Parking & Garages,Parking Facility,"220 N Morton Street, Bloomington, IN",39.16806,-86.535575,POINT (-86.535575 39.16806)
PG-PF-014,4th and Dunn Parking Lot,Parking & Garages,Parking Facility,"S Dunn Street Between Kirkwood Avenue And 4Th Street, Bloomington, IN",39.165825,-86.52863,POINT (-86.52863 39.165825)
PG-PF-015,Clear Creek Trail Parking Lot North,Parking & Garages,Parking Facility,"Clear Creek Trail, Bloomington, In 47403",39.136252,-86.5610374,POINT (-86.5610374 39.136252)
PG-PF-016,7th and Walnut Street Parking Garage,Parking & Garages,Parking Facility,"318 N Walnut Street, Bloomington, IN",39.169152,-86.533133,POINT (-86.533133 39.169152)
PG-PF-017,Showers South Parking Lot,Parking & Garages,Parking Facility,"City Employee Parking Lot South Of Showers Building, Bloomington, IN",39.169098,-86.536872,POINT (-86.536872 39.169098)
PG-PF-018,Upper Cascades Park Parking Lot,Parking & Garages,Parking Facility,"514 W Club House Drive, Bloomington, In 47404",39.2024601,-86.5395293,POINT (-86.5395293 39.2024601)
PG-PF-019,4th Street Parking Garage,Parking & Garages,Parking Facility,"105 W 4Th Street, Bloomington, IN",39.165258,-86.534101,POINT (-86.534101 39.165258)
PG-PF-020,Clear Creek Trail Parking Lot Central,Parking & Garages,Parking Facility,"1498 W That Road, Bloomington, In 47403",39.1151584,-86.5494835,POINT (-86.5494835 39.1151584)
PG-PF-021,Carlisle Parking Lot,Parking & Garages,Parking Facility,"Title 15 Lot 23, Commonly Know As Carlisle Lot, Bloomington, IN",39.1527733,-86.5224377,POINT (-86.5224377 39.1527733)
PGS-CC-001,Banneker Community Center,Parks & Green Spaces,Community Center,"930 W 7Th Street, Bloomington, IN",39.168922,-86.545049,POINT (-86.545049 39.168922)
PGS-CC-002,Allison-Jukebox Community Center,Parks & Green Spaces,Community Center,"351 S Washington Street, Bloomington, IN",39.163118,-86.53215,POINT (-86.53215 39.163118)
PGS-CC-003,Switchyard Pavillion,Parks & Green Spaces,Community Center,"1601 S Rogers Street, Bloomington, IN",39.146788,-86.536723,POINT (-86.536723 39.146788)
PGS-CG-001,Switchyard Park Community Gardens,Parks & Green Spaces,Community Garden,"At Switchyard Park, Near The Hillside Entrance, Bloomington, IN",39.15062,-86.53599,POINT (-86.53599 39.15062)
PGS-CG-002,Butler Park Community Garden,Parks & Green Spaces,Community Garden,"West End Of Rev Butler Park W 9Th Street, Bloomington, IN",39.170885,-86.544307,POINT (-86.544307 39.170885)
PGS-CG-003,Willie Streeter Community Garden,Parks & Green Spaces,Community Garden,"2120 S Highland Avenue, Bloomington, IN",39.141654,-86.516716,POINT (-86.516716 39.141654)
PGS-CP-001,Olcott Park,Parks & Green Spaces,Community Park,"2300 E Canada Drive, Bloomington, IN",39.12563,-86.510514,POINT (-86.510514 39.12563)
PGS-CP-002,Winslow Woods Park,Parks & Green Spaces,Community Park,"2120 S Highland Avenue, Bloomington, IN",39.141619,-86.51806,POINT (-86.51806 39.141619)
PGS-CP-003,Switchyard Park,Parks & Green Spaces,Community Park,"Along The B-Trail From Grimes Lane To Country Club Drive, Bloomington, IN",39.147738,-86.535056,POINT (-86.535056 39.147738)
PGS-CP-004,Upper Cascades Park,Parks & Green Spaces,Community Park,"514 W Club House Drive, Bloomington, IN",39.203276,-86.53948,POINT (-86.53948 39.203276)
PGS-CP-005,Peoples Park,Parks & Green Spaces,Community Park,"501 E Kirkwood Avenue, Bloomington, IN",39.16678,-86.528009,POINT (-86.528009 39.16678)
PGS-CP-006,Waldron Hill Buskirk Park,Parks & Green Spaces,Community Park,"331 S Washington Street, Bloomington, IN",39.163674,-86.531807,POINT (-86.531807 39.163674)
PGS-CP-007,RCA Community Park,Parks & Green Spaces,Community Park,"1400 W Rca Park Drive, Bloomington, IN",39.145133,-86.546485,POINT (-86.546485 39.145133)
PGS-CP-008,Bryan Park,Parks & Green Spaces,Community Park,"1001 S Henderson Street, Bloomington, IN",39.155192,-86.525343,POINT (-86.525343 39.155192)
PGS-CP-009,Lower Cascades Park,Parks & Green Spaces,Community Park,"2851 N Old State Road 37, Bloomington, IN",39.197182,-86.537293,POINT (-86.537293 39.197182)
PGS-DP-001,Ferguson Dog Park,Parks & Green Spaces,Dog Park,"4300 N Stone Mill Road, Bloomington, IN",39.209444,-86.532102,POINT (-86.532102 39.209444)
PGS-E-001,Switchyard Park Walnut Entrance,Parks & Green Spaces,Entrance,"1836 S Walnut Street, Bloomington, In 47401",39.14823,-86.53316,POINT (-86.53316 39.14823)
PGS-E-002,Switchyard Park Rogers Entrance,Parks & Green Spaces,Entrance,"1601 S Rogers Street, Bloomington, In 47403",39.147728,-86.5388,POINT (-86.5388 39.147728)
PGS-GC-001,Cascades Golf Course Clubhouse,Parks & Green Spaces,Golf Course,"3550 N Kinser Pike, Bloomington, IN",39.2012919,-86.539051,POINT (-86.539051 39.2012919)
PGS-NP-001,Latimer Woods,Parks & Green Spaces,Nature Park/Preserve,"3200 E Buick Cadillac Boulevard, Bloomington, IN",39.158671,-86.492991,POINT (-86.492991 39.158671)
PGS-NP-002,Rev Ernest D Butler Park,Parks & Green Spaces,Neighborhood Park,"812 W 9Th Street, Bloomington, IN",39.17081,-86.542502,POINT (-86.542502 39.17081)
PGS-NP-003,Broadview Park,Parks & Green Spaces,Neighborhood Park,"704 W Graham Drive, Bloomington, IN",39.140054,-86.541687,POINT (-86.541687 39.140054)
PGS-NP-004,Griffy Woods Nature Preserve,Parks & Green Spaces,Nature Park/Preserve,"South Shore Of Griffy Lake Between N Dunn Street And N Hinkle Road, Bloomington, IN",39.196486,-86.521452,POINT (-86.521452 39.196486)
PGS-NP-005,Highland Village Park,Parks & Green Spaces,Neighborhood Park,"950 S Harvey Drive, Bloomington, IN",39.158035,-86.588815,POINT (-86.588815 39.158035)
PGS-NP-006,Park Ridge Park,Parks & Green Spaces,Neighborhood Park,"3421 E Longview Avenue, Bloomington, IN",39.167944,-86.490589,POINT (-86.490589 39.167944)
PGS-NP-007,Southeast Park,Parks & Green Spaces,Neighborhood Park,"1600 S Sycamore Court, Bloomington, IN",39.14889,-86.504314,POINT (-86.504314 39.14889)
PGS-NP-008,Crestmont Park,Parks & Green Spaces,Neighborhood Park,"1209 W 15Th Street, Bloomington, IN",39.175613,-86.549869,POINT (-86.549869 39.175613)
PGS-NP-009,Park Ridge East Park,Parks & Green Spaces,Neighborhood Park,"4421 E Morningside Drive, Bloomington, IN",39.167584,-86.47452,POINT (-86.47452 39.167584)
PGS-NP-010,Schmalz Farm Park,Parks & Green Spaces,Neighborhood Park,"3010 E Daniel Street, Bloomington, IN",39.137063,-86.491814,POINT (-86.491814 39.137063)
PGS-NP-011,Miller Showers Park,Parks & Green Spaces,Neighborhood Park,"150 W 17Th Street, Bloomington, IN",39.180664,-86.534214,POINT (-86.534214 39.180664)
PGS-NP-012,Browns Woods,Parks & Green Spaces,Nature Park/Preserve,"S Basswood Drive Behind Canterbury Apartments, Bloomington, IN",39.159034,-86.571556,POINT (-86.571556 39.159034)
PGS-NP-013,Leonard Springs Nature Park,Parks & Green Spaces,Nature Park/Preserve,"4685 S Leonard Springs Road, Bloomington, IN",39.116803,-86.592191,POINT (-86.592191 39.116803)
PGS-NP-014,Sherwood Oaks Park,Parks & Green Spaces,Neighborhood Park,"1600 E Elliston Drive, Bloomington, IN",39.129445,-86.513553,POINT (-86.513553 39.129445)
PGS-NP-015,Griffy Lake Nature Preserve,Parks & Green Spaces,Nature Park/Preserve,"3400 N Headley Road, Bloomington, IN",39.199569,-86.510073,POINT (-86.510073 39.199569)
PGS-NP-016,Building Trades Park,Parks & Green Spaces,Neighborhood Park,"619 W Howe Street, Bloomington, IN",39.162269,-86.540628,POINT (-86.540628 39.162269)
PGS-PPA-001,Farmers Market Plaza,Parks & Green Spaces,Park Plaza Area,"W 8Th Street At B-Line Trail, Bloomington, IN",39.169422,-86.537427,POINT (-86.537427 39.169422)
PGS-PPA-002,Animal Island Plaza,Parks & Green Spaces,Park Plaza Area,"Southwest Corner Of 6Th And Morton Street Intersection On B-Line, Bloomington, IN",39.167085,-86.53614,POINT (-86.53614 39.167085)
PGS-PPA-003,Showers Commons,Parks & Green Spaces,Park Plaza Area,"In Front Of Showers City Hall, Bloomington, IN",39.169549,-86.536361,POINT (-86.536361 39.169549)
PGS-PPA-004,Realtors Plaza,Parks & Green Spaces,Park Plaza Area,"South Side Of 3Rd Street Bridge On The B-Line Trail, Bloomington, IN",39.164466,-86.536199,POINT (-86.536199 39.164466)
PGS-PPA-005,Seminary Square Plaza,Parks & Green Spaces,Park Plaza Area,"West Side Of The W 2Nd Street Kroger Grocery Store On B-Line Tra, Bloomington, IN",39.160194,-86.536193,POINT (-86.536193 39.160194)
PGS-PS-001,Upper Cascades Park Shelter,Parks & Green Spaces,Park Shelter,"514 W Club House Drive, Bloomington, In 47404",39.2032735,-86.5395537,POINT (-86.5395537 39.2032735)
PGS-PS-002,Lower Cascades Park Sycamore Shelter,Parks & Green Spaces,Park Shelter,"013-29010, E 10Th Street, Bloomington, In 47404",39.1978273,-86.53767,POINT (-86.53767 39.1978273)
PGS-PS-003,RCA Community Park Shelter 2,Parks & Green Spaces,Park Shelter,"1400 W Rca Park Drive, Bloomington, In 47403",39.1451281,-86.5486653,POINT (-86.5486653 39.1451281)
PGS-PS-004,Bryan Park Woodlawn Shelter,Parks & Green Spaces,Park Shelter,"1020 S Woodlawn Avenue Bldg 3, Bloomington, IN",39.155954,-86.523259,POINT (-86.523259 39.155954)
PGS-PS-005,RCA Community Park Shelter 1,Parks & Green Spaces,Park Shelter,"1400 W Rca Park Drive, Bloomington, In 47403",39.144626,-86.5473062,POINT (-86.5473062 39.144626)
PGS-PS-006,Byan Park Pool Shelter,Parks & Green Spaces,Park Shelter,"1020 S Woodlawn Avenue Bldg 2, Bloomington, IN",39.154976,-86.523757,POINT (-86.523757 39.154976)
PGS-PS-007,Lower Cascades Park Waterfall Shelter,Parks & Green Spaces,Park Shelter,"2851 N Old State Road 37, Bloomington, In 47408",39.1947943,-86.5362013,POINT (-86.5362013 39.1947943)
PGS-PS-008,Olcott Park Shelter,Parks & Green Spaces,Park Shelter,"401 N. Morton Street. Ste. 250, Bloomington, In 47408",39.1256858,-86.5114459,POINT (-86.5114459 39.1256858)
PGS-RC-001,Twin Lakes Recreation Center,Parks & Green Spaces,Recreation Center,"1700 W Bloomfield Road, Bloomington, IN",39.156268,-86.563218,POINT (-86.563218 39.156268)
PGS-RC-002,Griffy Lake Boathouse,Parks & Green Spaces,Recreation Center,"3400 N Headley Road, Bloomington, IN",39.198318,-86.513142,POINT (-86.513142 39.198318)
PGS-SP-001,Twin Lakes Sports Park,Parks & Green Spaces,Sports Park,"2350 W Bloomfield Road, Bloomington, IN",39.153833,-86.567549,POINT (-86.567549 39.153833)
PGS-SP-002,Bryan Park Pool,Parks & Green Spaces,Swimming Pool,"1020 S Woodlawn Avenue, Bloomington, IN",39.154845,-86.523314,POINT (-86.523314 39.154845)
PGS-SP-003,Lower Cascades Ballfields,Parks & Green Spaces,Sports Park,"3601 N Old State Road 37, Bloomington, IN",39.202049,-86.535883,POINT (-86.535883 39.202049)
PGS-SP-004,Winslow Sports Complex,Parks & Green Spaces,Sports Park,"2801 S Highland Avenue, Bloomington, IN",39.137837,-86.51607,POINT (-86.51607 39.137837)
PGS-SP-005,Mills Pool,Parks & Green Spaces,Swimming Pool,"1100 W 14Th Street, Bloomington, IN",39.176049,-86.54478,POINT (-86.54478 39.176049)
PGS-SR-001,Frank Southern Ice Arena,Parks & Green Spaces,Skating Rink,"2100 S Henderson Street, Bloomington, IN",39.142669,-86.52737,POINT (-86.52737 39.142669)
RCS-AGS-001,Rong Cheng Supermarket,Retail & Community Services,Asian Grocery Store,"2646 E 10Th Street, Bloomington, In",39.1712374,-86.5003164,POINT (-86.5003164 39.1712374)
RCS-B-001,Insomnia Cookies,Retail & Community Services,Bakery,"430 E Kirkwood Avenue, Bloomington, IN",39.16632424,-86.52849583,POINT (-86.52849583 39.16632424)
RCS-B-002,La Bodega Latin Market,Retail & Community Services,Bakery,"1915 S Walnut Street, Bloomington, In",39.1457916927377,-86.5322322028014,POINT (-86.5322322028014 39.1457916927377)
RCS-BS-001,The Butcher's Block,Retail & Community Services,Butcher Shop,"115 S In-46 Suite E, Bloomington, In",39.1599902,-86.490383,POINT (-86.490383 39.1599902)
RCS-FB-001,Crimson Cupboard Food Pantry,Retail & Community Services,Food Bank,"800 N Union Street, Bloomington, In",39.17360145,-86.50882761006616,POINT (-86.50882761006616 39.17360145)
RCS-FB-002,Monroe County United Ministries,Retail & Community Services,Food Bank,"827 W 14Th Court, Bloomington, In",39.175728128204376,-86.5437536665985,POINT (-86.5437536665985 39.175728128204376)
RCS-FB-003,Hoosier Hills Food Bank,Retail & Community Services,Food Bank,"2333 W Industrial Park Drive, Bloomington, In",39.17507766809507,-86.56700591872043,POINT (-86.56700591872043 39.17507766809507)
RCS-FB-004,Mother Hubbards Cupboard,Retail & Community Services,Food Bank,"1100 W Allen Street, Bloomington, In",39.155735,-86.544477,POINT (-86.544477 39.155735)
RCS-FB-005,Bobby's Pantry Food Pantry,Retail & Community Services,Food Bank,"1010 S Walnut Street A, Bloomington, In",39.155374466272995,-86.53380375671252,POINT (-86.53380375671252 39.155374466272995)
RCS-FB-006,Bloomington Township Trustee Food Pantry,Retail & Community Services,Food Bank,"924 W 17Th Street Suite C, Bloomington, In",39.179114,-86.543911,POINT (-86.543911 39.179114)
RCS-FB-007,Tabitha's Storehouse Food Pantry,Retail & Community Services,Food Bank,"421 S Curry Pike, Bloomington, In",39.163635408163266,-86.58264691836735,POINT (-86.58264691836735 39.163635408163266)
RCS-FB-008,Feed The Needy - Food Distribution Center,Retail & Community Services,Food Bank,"321 N Rogers Street, Bloomington, In",39.16885461600526,-86.53876018057748,POINT (-86.53876018057748 39.16885461600526)
RCS-FB-009,Crestmont Community Food Pantry,Retail & Community Services,Food Bank,"1007 N Summit Street, Bloomington, In",39.17539935,-86.5483603965919,POINT (-86.5483603965919 39.17539935)
RCS-FB-010,"Shelter, Inc. - Food Distribution Center",Retail & Community Services,Food Bank,"919 S Rogers Street, Bloomington, In",39.1572247823773,-86.53858278190908,POINT (-86.53858278190908 39.1572247823773)
RCS-FDC-001,FUMC Wednesday Pantry,Retail & Community Services,Food Distribution Center,"219 E 4Th Street, Bloomington, In",39.16582585,-86.53198648055685,POINT (-86.53198648055685 39.16582585)
RCS-FM-001,Bloomington Community Farmers Market,Retail & Community Services,Farmers Market,"Showers City Hall South Parking Lot, Bloomington, IN",39.169189,-86.536794,POINT (-86.536794 39.169189)
RCS-FM-002,Tuesday Farmers Market Location,Retail & Community Services,Farmers Market,"At The Pavilion In Switchyard Park, Bloomington, IN",39.1469143,-86.5367908,POINT (-86.5367908 39.1469143)
RCS-FM-003,Bloomington Community Farmers' Market,Retail & Community Services,Farmers' Market,"401 N Morton Street, Bloomington, In",39.1697339,-86.5366772,POINT (-86.5366772 39.1697339)
RCS-FS-001,Bloomington Farm Stop Collective,Retail & Community Services,Farm Shop,"902 W Kirkwood Avenue, Bloomington, In",39.16674316580055,-86.5439273674845,POINT (-86.5439273674845 39.16674316580055)
RCS-GS-001,World Foods Market,Retail & Community Services,Grocery Store,"106 E 2Nd Street, Bloomington, In",39.16128506122449,-86.53343263265306,POINT (-86.53343263265306 39.16128506122449)
RCS-GS-002,Fresh Thyme,Retail & Community Services,Grocery Store,"2812 E 3Rd Street, Bloomington, In",39.16328215,-86.49599495105925,POINT (-86.49599495105925 39.16328215)
RCS-GS-003,B-Town International Market,Retail & Community Services,Grocery Store,"2901 E Covenanter Drive, Bloomington, In",39.1556955,-86.49480742912317,POINT (-86.49480742912317 39.1556955)
RCS-GS-004,Kroger,Retail & Community Services,Grocery Store,"528 S College Avenue, Bloomington, In",39.15985885,-86.53557942790022,POINT (-86.53557942790022 39.15985885)
RCS-GS-005,Bloomingfoods Co-op Market,Retail & Community Services,Grocery Store,"3220 E 3Rd Street, Bloomington, In",39.163904,-86.4910644,POINT (-86.4910644 39.163904)
RCS-GS-006,Lakeside Market,Retail & Community Services,Grocery Store,"6050 E State Road 45, Bloomington, In",39.1862838,-86.5240522,POINT (-86.5240522 39.1862838)
RCS-GS-007,Kroger,Retail & Community Services,Grocery Store,"1825 N Kinser Pike, Bloomington, In",39.18762515,-86.54005336377776,POINT (-86.54005336377776 39.18762515)
RCS-GS-008,Fresh Thyme Market,Retail & Community Services,Grocery Store,"3600 W 3Rd Street, Bloomington, In",39.1660613,-86.57954996362508,POINT (-86.57954996362508 39.1660613)
RCS-GS-009,Kroger,Retail & Community Services,Grocery Store,"1175 S College Mall Road, Bloomington, In",39.15373875,-86.49522157943169,POINT (-86.49522157943169 39.15373875)
RCS-GS-010,Bloomingfoods Co-op Market,Retail & Community Services,Grocery Store,"316 W 6Th Street, Bloomington, In",39.16791165,-86.53715907506235,POINT (-86.53715907506235 39.16791165)
RCS-GS-011,Kroger,Retail & Community Services,Grocery Store,"4025 S Old State Road 37, Bloomington, In",39.12028275,-86.52934020634686,POINT (-86.52934020634686 39.12028275)
RCS-GS-012,Kroger,Retail & Community Services,Grocery Store,"500 Liberty Drive, Bloomington, In",39.151212,-86.576864,POINT (-86.576864 39.151212)
RCS-GS-013,4th Street International Market,Retail & Community Services,Grocery Store,"408 E 4Th Street, Bloomington, In",39.1653589,-86.52932009299789,POINT (-86.52932009299789 39.1653589)
RCS-IGS-001,Little Italy Market,Retail & Community Services,Italian Grocery Store,"421 E 3Rd Street #2, Bloomington, In",39.1649491,-86.5287363,POINT (-86.5287363 39.1649491)
RCS-IGS-002,Apna Bazaar International Market,Retail & Community Services,Indian Grocery Store,"2556 E 3Rd Street, Bloomington, In",39.16415343434344,-86.50215791919192,POINT (-86.50215791919192 39.16415343434344)
RCS-SK-001,Community Kitchen,Retail & Community Services,Soup Kitchen,"1515 S Rogers Street, Bloomington, In",39.15036019069062,-86.53868127054612,POINT (-86.53868127054612 39.15036019069062)
RCS-SS-001,The UPS Store,Retail & Community Services,Shipping Service,"885 S College Mall Road, Bloomington, In",39.157243987374336,-86.49770370553732,POINT (-86.49770370553732 39.157243987374336)
TP-MBP-001,Wapehani Mountain Bike Park,Trails & Playgrounds,Mountain Bike Park,"3401 W Wapehani Road, Bloomington, IN",39.143658,-86.568945,POINT (-86.568945 39.143658)
TP-MT-001,Jackson Creek Trail,Trails & Playgrounds,Multi-use Trail,"Runs From Sherwood Oaks Park To Childs School, Bloomington, IN",39.132268,-86.510792,POINT (-86.510792 39.132268)
TP-MT-002,Cascades Park Trail,Trails & Playgrounds,Multi-use Trail,"N Kinser Pike To N Stone Mill Road, Bloomington, IN",39.199057,-86.536763,POINT (-86.536763 39.199057)
TP-MT-003,Clear Creek Trail,Trails & Playgrounds,Multi-use Trail,"Rus From W Tapp Road To W Church Lane, Bloomington, IN",39.12514,-86.55675,POINT (-86.55675 39.12514)
TP-MT-004,B-Line Trail,Trails & Playgrounds,Multi-use Trail,"350 W 7Th Street, Bloomington, IN",39.168674,-86.537048,POINT (-86.537048 39.168674)
TP-MT-005,Bloomington Rail Trail,Trails & Playgrounds,Multi-use Trail,"Connects B-Line Trail At County Club Drive To Clear Creek Trail, Bloomington, IN",39.119865,-86.538645,POINT (-86.538645 39.119865)
TP-P-001,Schmaltz Farm Park Playground,Trails & Playgrounds,Playground,"3010 E Daniel Street, Bloomington, IN",39.1367323,-86.4918759,POINT (-86.4918759 39.1367323)
TP-P-002,Park Ridge East Park Playground,Trails & Playgrounds,Playground,"4421 E Morningside Drive, Bloomington, IN",39.167198,-86.474188,POINT (-86.474188 39.167198)
TP-P-003,RCA Park Playground,Trails & Playgrounds,Playground,"1400 W Rca Park Drive, Bloomington, IN",39.145015,-86.545929,POINT (-86.545929 39.145015)
TP-P-004,Bryan Park Playground,Trails & Playgrounds,Playground,"1001 S Henderson Street, Bloomington, IN",39.156172,-86.526435,POINT (-86.526435 39.156172)
TP-P-005,Park Ridge Park Playground,Trails & Playgrounds,Playground,"3421 E Longview Avenue, Bloomington, IN",39.1679516,-86.4905632,POINT (-86.4905632 39.1679516)
TP-P-006,Crestmont Park Playground,Trails & Playgrounds,Playground,"1209 W 15Th Street, Bloomington, IN",39.1760298,-86.5496757,POINT (-86.5496757 39.1760298)
TP-P-007,Switchyard Park Playground,Trails & Playgrounds,Playground,"9509 E Northshore Drive, Bloomington, IN",39.146412,-86.5356881,POINT (-86.5356881 39.146412)
TP-P-008,Southeast Park Playground,Trails & Playgrounds,Playground,"1600 S Sycamore Court, Bloomington, IN",39.148594,-86.504298,POINT (-86.504298 39.148594)
TP-P-009,Highland Village Park Playground,Trails & Playgrounds,Playground,"950 S Harvey Drive, Bloomington, IN",39.1583005,-86.5884642,POINT (-86.5884642 39.1583005)
TP-P-010,Waldron Hill Buskirk Park Playground,Trails & Playgrounds,Playground,"331 S Washington Street, Bloomington, IN",39.1632548,-86.531426,POINT (-86.531426 39.1632548)
TP-P-011,Olcott Park Playground,Trails & Playgrounds,Playground,"2300 E Canada Drive, Bloomington, IN",39.126561,-86.511088,POINT (-86.511088 39.126561)
TP-P-012,Sherwood Oaks Park Playground,Trails & Playgrounds,Playground,"1600 E Elliston Drive, Bloomington, IN",39.129625,-86.5135027,POINT (-86.5135027 39.129625)
TP-P-013,Rev Ernest D Butler Park Playground,Trails & Playgrounds,Playground,"812 W 9Th Street, Bloomington, IN",39.1710515,-86.5416935,POINT (-86.5416935 39.1710515)
TP-P-014,Building Trades Park Playground,Trails & Playgrounds,Playground,"619 W Howe Street, Bloomington, IN",39.1622071,-86.5404078,POINT (-86.5404078 39.1622071)
TP-P-015,Lower Cascades Park Playground,Trails & Playgrounds,Playground,"2851 N Old State Road 37, Bloomington, IN",39.1962514,-86.5358387,POINT (-86.5358387 39.1962514)
TP-P-016,Broadview Park Playground,Trails & Playgrounds,Playground,"704 W Graham Drive, Bloomington, IN",39.1401413,-86.5411669,POINT (-86.5411669 39.1401413)
TP-SP-001,Skate Park at Upper Cascades,Trails & Playgrounds,Skate Park,"2602 N Kinser Pike, Bloomington, IN",39.191876,-86.536883,POINT (-86.536883 39.191876)
TP-T-001,Griffy Lake Wetland Trail End,Trails & Playgrounds,Trailhead,"Eastern Edge Of Griffy Lake Shoreline, Bloomington, IN",39.197222,-86.508631,POINT (-86.508631 39.197222)
TP-T-002,Griffy Lake Lanam Trail East Trail Head,Trails & Playgrounds,Trailhead,"Near Lanam Road, Bloomington, IN",39.195888,-86.495972,POINT (-86.495972 39.195888)
TP-T-003,Griffy Lake North Shore Trail Dam Trail Head,Trails & Playgrounds,Trailhead,"Griffy Lake Dam Off Of N Dunn Street, Bloomington, IN",39.205854,-86.527317,POINT (-86.527317 39.205854)
TP-T-004,Twin Lakes Trail Northern Trail Head,Trails & Playgrounds,Trailhead,"N Of W Bloomfield Road Around Twin Lakes, Bloomington, IN",39.155099,-86.566348,POINT (-86.566348 39.155099)
TP-T-005,Griffy Lake Nature Trail Boathouse Trail Head,Trails & Playgrounds,Trailhead,"North Of Side Of  The Griffly Lake Boathouse Parking Lot Acr, Bloomington, IN",39.198629,-86.513189,POINT (-86.513189 39.198629)
TP-T-006,Winslow Ballfields Northern Trail Head,Trails & Playgrounds,Trailhead,"E Highland Avenue Between Ballfields And Ymca Upper Parking Lot, Bloomington, IN",39.140199,-86.515765,POINT (-86.515765 39.140199)
TP-T-007,B-Line Trail West Trail Head,Trails & Playgrounds,Trailhead,"N Adams Street South Of W 10Th Street, Bloomington, IN",39.170874,-86.549746,POINT (-86.549746 39.170874)
TP-T-008,RCA Community Park Trail Head,Trails & Playgrounds,Trailhead,"West End Of W Rca Park Drive, Bloomington, IN",39.14456,-86.547731,POINT (-86.547731 39.14456)
TP-T-009,Griffy Lake North Shore Trail East Trail Head,Trails & Playgrounds,Trailhead,"N Headly Road North Of The Griffy Lake Boathouse, Bloomington, IN",39.200529,-86.514331,POINT (-86.514331 39.200529)
TP-T-010,Lower Cascades Park Trail Head N Side,Trails & Playgrounds,Trailhead,"N Of Lower Cascades Park W Of Old Sr 37, Bloomington, IN",39.197373,-86.537023,POINT (-86.537023 39.197373)
TP-T-011,Latimer Woods Trail Head,Trails & Playgrounds,Trailhead,"North Loop Of E Stratum Way Between 3105 And 3115, Bloomington, IN",39.1574,-86.493005,POINT (-86.493005 39.1574)
TP-T-012,Jackson Creek Trail South Trail Head,Trails & Playgrounds,Trailhead,"300Ft East Of The East End Of E Elliston Drive, Bloomington, IN",39.127011,-86.51155,POINT (-86.51155 39.127011)
TP-T-013,B-Line Trail South Trail Head,Trails & Playgrounds,Trailhead,"W Country Club Drive Between S Madison Street And S Walnut Street, Bloomington, IN",39.136063,-86.534864,POINT (-86.534864 39.136063)
TP-T-014,Twin Lakes Trail Southern Trail Head,Trails & Playgrounds,Trailhead,"N Of W Bloomfield Road Around Twin Lakes, Bloomington, IN",39.154335,-86.566152,POINT (-86.566152 39.154335)
TP-T-015,Lower Cascades Park South Trail Head,Trails & Playgrounds,Trailhead,"Lower Cascades Park Waterfall Shelter, Bloomington, IN",39.194904,-86.536249,POINT (-86.536249 39.194904)
TP-T-016,Upper Cascades Skate Park Trail Head N End,Trails & Playgrounds,Trailhead,"N Of Upper Cascades Skate Park, Bloomington, IN",39.194193,-86.535729,POINT (-86.535729 39.194193)
TP-T-017,Griffy Lake South Shore Trail North Trail End,Trails & Playgrounds,Trailhead,"End Of South Shore Trail Near Shorelinein Griffy Woods Natur, Bloomington, IN",39.198461,-86.516543,POINT (-86.516543 39.198461)
TP-T-018,Griffy Lake South Shore Trail Sassafras CIR Trail,Trails & Playgrounds,Trailhead,"E Sassafras Circle In Meadwood, Bloomington, IN",39.192863,-86.519435,POINT (-86.519435 39.192863)
TP-T-019,Bloomington Rail Trail South Trail Head,Trails & Playgrounds,Trailhead,"900 Ft North Of W Church Lane Clear Creek Trail Parking Lot, Bloomington, IN",39.109703,-86.542624,POINT (-86.542624 39.109703)
TP-T-020,Butler Park Ninth Street Loop Fairview Trail Head,Trails & Playgrounds,Trailhead,"N Fairview Street North Of W 9Th Street And Park Parking Lot, Bloomington, IN",39.171351,-86.541165,POINT (-86.541165 39.171351)
TP-T-021,Upper Cascades Skate Park Trail Head S End,Trails & Playgrounds,Trailhead,"West Side Of Upper Cascades Skate Park, Bloomington, IN",39.192131,-86.537473,POINT (-86.537473 39.192131)
TP-T-022,Clear Creek Trail South Trail Head,Trails & Playgrounds,Trailhead,"West Of Intersection Of W Church Lane And S Rogers Street, Bloomington, IN",39.107451,-86.543713,POINT (-86.543713 39.107451)
TP-T-023,Clear Creek Trail North Trail Head,Trails & Playgrounds,Trailhead,"Parking Lot On W Tapp Road E Of S Weimer Road, Bloomington, IN",39.136406,-86.56126,POINT (-86.56126 39.136406)
TP-T-024,Polly Grimshaw Trail West Trail Head,Trails & Playgrounds,Trailhead,"At N State Road 46 South Of Railroad, Bloomington, IN",39.17019,-86.501504,POINT (-86.501504 39.17019)
TP-T-025,Cascade Trail  West Trail Head,Trails & Playgrounds,Trailhead,"In Kinser Pike At W Club House Drive, Bloomington, IN",39.200989,-86.542899,POINT (-86.542899 39.200989)
TP-T-026,Bloomington Rail Trail North Trail Head,Trails & Playgrounds,Trailhead,"Parking Lot On W Country Club Drive East Of S Madison Street, Bloomington, IN",39.135949,-86.535147,POINT (-86.535147 39.135949)
TP-T-027,Winslow Ballfields Western Trail Head,Trails & Playgrounds,Trailhead,"S Highland Avenue North Of E Winslow Road, Bloomington, IN",39.136875,-86.517537,POINT (-86.517537 39.136875)
TP-T-028,Cascade Trail  East Trail Head,Trails & Playgrounds,Trailhead,"E Stone Mill Road At N Old State Road 37, Bloomington, IN",39.207926,-86.532163,POINT (-86.532163 39.207926)
TP-T-029,Jackson Creek Trail North Trail Head,Trails & Playgrounds,Trailhead,"East Side Of  The S High Street And E Rogers Road Roundabout, Bloomington, IN",39.136341,-86.507674,POINT (-86.507674 39.136341)
TP-T-030,Clear Creek Trail Access Highlands,Trails & Playgrounds,Trailhead,"Western End Of W Gordon Pike, Bloomington, IN",39.121964,-86.553256,POINT (-86.553256 39.121964)
TP-T-031,Rev Ernest D Butler Park Southern Trail Head,Trails & Playgrounds,Trailhead,"At W 9Th Street Across From N William Street, Bloomington, IN",39.170523,-86.543203,POINT (-86.543203 39.170523)
TP-T-032,Griffy Creek Trail Griffy Lake Trail Head,Trails & Playgrounds,Trailhead,"East End Of The Griffy Lake Boathouse Parking Lot, Bloomington, IN",39.197789,-86.511654,POINT (-86.511654 39.197789)
TP-T-033,Griffy Creek Trail East Trail Head,Trails & Playgrounds,Trailhead,"East End Of Griffy Creek Trail On The East Side Of Griffy La, Bloomington, IN",39.204914,-86.48652,POINT (-86.48652 39.204914)
TP-T-034,Polly Grimshaw Trail East Trail Head,Trails & Playgrounds,Trailhead,"At E Longview Avenue And Glenwood Avenue W, Bloomington, IN",39.167989,-86.490172,POINT (-86.490172 39.167989)
TP-UG-001,Goat Farm,Trails & Playgrounds,Undeveloped Greenspace,"2000 E Winslow Road, Bloomington, IN",39.134041,-86.510097,POINT (-86.510097 39.134041)
